{
    "links": {
        "self": "http://www.neowsapp.com/rest/v1/neo/3791245?api_key=iIulBulltgU6a56xZRHN4H3l9WmuAYTsLGpBGhQ2"
    },
    "id": "3791245",
    "neo_reference_id": "3791245",
    "name": "(2017 XC1)",
    "designation": "2017 XC1",
    "nasa_jpl_url": "http://ssd.jpl.nasa.gov/sbdb.cgi?sstr=3791245",
    "absolute_magnitude_h": 20.5,
    "estimated_diameter": {
        "kilometers": {
            "estimated_diameter_min": 0.2111324448,
            "estimated_diameter_max": 0.4721064988
        },
        "meters": {
            "estimated_diameter_min": 211.1324447897,
            "estimated_diameter_max": 472.1064988055
        },
        "miles": {
            "estimated_diameter_min": 0.1311915784,
            "estimated_diameter_max": 0.2933532873
        },
        "feet": {
            "estimated_diameter_min": 692.6917701639,
            "estimated_diameter_max": 1548.9058855411
        }
    },
    "is_potentially_hazardous_asteroid": false,
    "close_approach_data": [
        {
            "close_approach_date": "1998-11-30",
            "close_approach_date_full": "1998-Nov-30 13:02",
            "epoch_date_close_approach": 912430920000,
            "relative_velocity": {
                "kilometers_per_second": "20.9607559274",
                "kilometers_per_hour": "75458.7213385903",
                "miles_per_hour": "46887.1149339702"
            },
            "miss_distance": {
                "astronomical": "0.3170351381",
                "lunar": "123.3266687209",
                "kilometers": "47427781.374915847",
                "miles": "29470256.7924068086"
            },
            "orbiting_body": "Earth"
        },
        {
            "close_approach_date": "2017-12-04",
            "close_approach_date_full": "2017-Dec-04 07:37",
            "epoch_date_close_approach": 1512373020000,
            "relative_velocity": {
                "kilometers_per_second": "23.8577471663",
                "kilometers_per_hour": "85887.8897987578",
                "miles_per_hour": "53367.3946363448"
            },
            "miss_distance": {
                "astronomical": "0.4879850251",
                "lunar": "189.8261747639",
                "kilometers": "73001520.346856537",
                "miles": "45361041.3241007306"
            },
            "orbiting_body": "Earth"
        },
        {
            "close_approach_date": "2029-11-30",
            "close_approach_date_full": "2029-Nov-30 19:43",
            "epoch_date_close_approach": 1890762180000,
            "relative_velocity": {
                "kilometers_per_second": "21.1663361111",
                "kilometers_per_hour": "76198.8099999452",
                "miles_per_hour": "47346.9772469104"
            },
            "miss_distance": {
                "astronomical": "0.3018389944",
                "lunar": "117.4153688216",
                "kilometers": "45154470.645181928",
                "miles": "28057687.0066814864"
            },
            "orbiting_body": "Earth"
        }
    ],
    "orbital_data": {
        "orbit_id": "7",
        "orbit_determination_date": "2018-01-15 06:58:03",
        "first_observation_date": "2017-12-08",
        "last_observation_date": "2018-01-14",
        "data_arc_in_days": 37,
        "observations_used": 41,
        "orbit_uncertainty": "7",
        "minimum_orbit_intersection": ".302037",
        "jupiter_tisserand_invariant": "3.757",
        "epoch_osculation": "2459000.5",
        "eccentricity": ".2987949412425625",
        "semi_major_axis": "1.785468951165882",
        "inclination": "41.08523005749308",
        "ascending_node_longitude": "72.06210049275737",
        "orbital_period": "871.418710081047",
        "perihelion_distance": "1.251979860811852",
        "perihelion_argument": "329.3685363156409",
        "aphelion_distance": "2.318958041519911",
        "perihelion_time": "2458951.447783143394",
        "mean_anomaly": "20.26442382300434",
        "mean_motion": ".4131194290819368",
        "equinox": "J2000",
        "orbit_class": {
            "orbit_class_type": "AMO",
            "orbit_class_description": "Near-Earth asteroid orbits similar to that of 1221 Amor",
            "orbit_class_range": "1.017 AU < q (perihelion) < 1.3 AU"
        }
    },
    "is_sentry_object": false
}